H1 CPF  1  DLR 2021 06 03 10  6542 technosat            
H2  1704205 6203    42829 2021 06 03 00 00 00 2021 06 10 00 00 00    60 1 1  0 0 0
H9
10 0 59374  57600.000000  0      -1612887.910      -6243608.593      -2690678.836
10 0 59374  57660.000000  0      -1742170.392      -6373816.105      -2271507.887
10 0 59374  57720.000000  0      -1865173.022      -6476221.326      -1842752.966
10 0 59374  57780.000000  0      -1981132.652      -6550443.251      -1406220.202
10 0 59374  57840.000000  0      -2089312.607      -6596225.744       -963750.041
10 0 59374  57900.000000  0      -2189006.959      -6613438.605       -517209.407
10 0 59374  57960.000000  0      -2279544.684      -6602078.027        -68483.736
10 0 59374  58020.000000  0      -2360293.672      -6562266.468        380531.110
10 0 59374  58080.000000  0      -2430664.565      -6494251.916        827936.985
10 0 59374  58140.000000  0      -2490114.391      -6398406.570       1271841.645
10 0 59374  58200.000000  0      -2538149.997      -6275224.925       1710366.919
10 0 59374  58260.000000  0      -2574331.221      -6125321.253       2141656.826
10 0 59374  58320.000000  0      -2598273.810      -5949426.540       2563885.580
10 0 59374  58380.000000  0      -2609652.052      -5748384.859       2975265.457
10 0 59374  58440.000000  0      -2608201.101      -5523149.231       3374054.465
10 0 59374  58500.000000  0      -2593719.010      -5274776.989       3758563.796
10 0 59374  58560.000000  0      -2566068.442      -5004424.692       4127165.025
10 0 59374  58620.000000  0      -2525178.068      -4713342.605       4478297.016
10 0 59374  58680.000000  0      -2471043.654      -4402868.799       4810472.538
10 0 59374  58740.000000  0      -2403728.819      -4074422.852       5122284.590
10 0 59374  58800.000000  0      -2323365.398      -3729499.144       5412412.335
10 0 59374  58860.000000  0      -2230153.461      -3369659.872       5679626.557
10 0 59374  58920.000000  0      -2124360.988      -2996527.892       5922794.758
10 0 59374  58980.000000  0      -2006323.202      -2611779.315       6140885.836
10 0 59374  59040.000000  0      -1876441.564      -2217135.946       6332974.351
10 0 59374  59100.000000  0      -1735182.453      -1814357.550       6498244.393
10 0 59374  59160.000000  0      -1583075.514      -1405233.918       6635992.979
10 0 59374  59220.000000  0      -1420711.686       -991576.825       6745632.916
10 0 59374  59280.000000  0      -1248740.956       -575211.994       6826695.128
10 0 59374  59340.000000  0      -1067869.831       -157971.143       6878830.608
10 0 59374  59400.000000  0       -878858.477        258316.024       6901811.991
10 0 59374  59460.000000  0       -682517.563        671829.865       6895534.625
10 0 59374  59520.000000  0       -479704.795       1080768.768       6860017.114
10 0 59374  59580.000000  0       -271321.207       1483357.016       6795401.375
10 0 59374  59640.000000  0        -58307.180       1877852.553       6701952.227
10 0 59374  59700.000000  0        158361.796       2262554.593       6580056.427
10 0 59374  59760.000000  0        377679.542       2635810.972       6430221.230
10 0 59374  59820.000000  0        598613.818       2996025.351       6253072.544
10 0 59374  59880.000000  0        820111.153       3341664.218       6049352.557
10 0 59374  59940.000000  0       1041101.838       3671263.617       5819916.832
10 0 59374  60000.000000  0       1260505.076       3983435.562       5565730.940
10 0 59374  60060.000000  0       1477234.252       4276874.132       5287866.633
10 0 59374  60120.000000  0       1690202.348       4550361.275       4987497.539
10 0 59374  60180.000000  0       1898327.421       4802772.196       4665894.304
10 0 59374  60240.000000  0       2100538.107       5033080.218       4324419.312
10 0 59374  60300.000000  0       2295779.166       5240361.229       3964521.053
10 0 59374  60360.000000  0       2483017.018       5423797.702       3587728.082
10 0 59374  60420.000000  0       2661245.247       5582682.404       3195642.608
10 0 59374  60480.000000  0       2829490.057       5716421.562       2789933.477
10 0 59374  60540.000000  0       2986815.589       5824537.285       2372328.799
10 0 59374  60600.000000  0       3132329.085       5906669.352       1944608.342
10 0 59374  60660.000000  0       3265185.821       5962576.496       1508595.737
10 0 59374  60720.000000  0       3384593.840       5992137.128       1066150.416
10 0 59374  60780.000000  0       3489818.448       5995349.466        619159.367
10 0 59374  60840.000000  0       3580186.497       5972331.051        169528.746
10 0 59374  60900.000000  0       3655090.353       5923317.622       -280824.636
10 0 59374  60960.000000  0       3713991.485       5848661.381       -729981.818
10 0 59374  61020.000000  0       3756423.729       5748828.746      -1176030.167
10 0 59374  61080.000000  0       3781996.220       5624397.564      -1617071.852
10 0 59374  61140.000000  0       3790395.932       5476053.707      -2051232.248
10 0 59374  61200.000000  0       3781389.785       5304587.171      -2476668.160
10 0 59374  61260.000000  0       3754826.344       5110887.674      -2891575.878
10 0 59374  61320.000000  0       3710637.097       4895939.794      -3294198.998
10 0 59374  61380.000000  0       3648837.274       4660817.647      -3682835.938
10 0 59374  61440.000000  0       3569526.278       4406679.245      -4055847.081
10 0 59374  61500.000000  0       3472887.731       4134760.544      -4411661.647
10 0 59374  61560.000000  0       3359189.089       3846369.176      -4748784.252
10 0 59374  61620.000000  0       3228780.804       3542877.860      -5065801.041
10 0 59374  61680.000000  0       3082095.129       3225717.602      -5361385.371
10 0 59374  61740.000000  0       2919644.522       2896370.698      -5634303.069
10 0 59374  61800.000000  0       2742019.692       2556363.655      -5883417.253
10 0 59374  61860.000000  0       2549887.259       2207259.968      -6107692.751
10 0 59374  61920.000000  0       2343987.056       1850652.805      -6306199.989
10 0 59374  61980.000000  0       2125129.146       1488157.707      -6478118.396
10 0 59374  62040.000000  0       1894190.551       1121405.286      -6622739.381
10 0 59374  62100.000000  0       1652111.693        752033.975      -6739468.873
10 0 59374  62160.000000  0       1399892.543        381682.840      -6827829.485
10 0 59374  62220.000000  0       1138588.413         11984.408      -6887462.234
10 0 59374  62280.000000  0        869305.506       -355442.434      -6918127.681
10 0 59374  62340.000000  0        593196.274       -718999.353      -6919706.598
10 0 59374  62400.000000  0        311454.583      -1077115.294      -6892200.238
10 0 59374  62460.000000  0         25310.680      -1428253.040      -6835730.179
10 0 59374  62520.000000  0       -263974.015      -1770915.560      -6750537.782
10 0 59374  62580.000000  0       -555112.371      -2103652.230      -6636983.281
10 0 59374  62640.000000  0       -846797.153      -2425064.871      -6495544.332
10 0 59374  62700.000000  0      -1137706.743      -2733813.519      -6326814.078
10 0 59374  62760.000000  0      -1426510.948      -3028621.863      -6131498.816
10 0 59374  62820.000000  0      -1711876.913      -3308282.429      -5910415.291
10 0 59374  62880.000000  0      -1992475.126      -3571661.497      -5664487.575
10 0 59374  62940.000000  0      -2266985.498      -3817703.724      -5394743.550
10 0 59374  63000.000000  0      -2534103.526      -4045436.484      -5102310.931
10 0 59374  63060.000000  0      -2792546.453      -4253973.807      -4788412.813
10 0 59374  63120.000000  0      -3041059.379      -4442519.930      -4454362.821
10 0 59374  63180.000000  0      -3278421.312      -4610372.440      -4101559.870
10 0 59374  63240.000000  0      -3503451.131      -4756925.037      -3731482.586
10 0 59374  63300.000000  0      -3715013.469      -4881669.874      -3345683.349
10 0 59374  63360.000000  0      -3912024.468      -4984199.472      -2945781.965
10 0 59374  63420.000000  0      -4093457.338      -5064208.140      -2533459.007
10 0 59374  63480.000000  0      -4258347.726      -5121492.961      -2110448.870
10 0 59374  63540.000000  0      -4405798.833      -5155954.294      -1678532.530
10 0 59374  63600.000000  0      -4534986.262      -5167595.791      -1239530.056
10 0 59374  63660.000000  0      -4645162.558      -5156523.929       -795292.924
10 0 59374  63720.000000  0      -4735661.416      -5122947.068       -347696.138
10 0 59374  63780.000000  0      -4805901.522      -5067174.020        101369.783
10 0 59374  63840.000000  0      -4855390.036      -4989612.130        550006.936
10 0 59374  63900.000000  0      -4883725.638      -4890764.874        996318.235
10 0 59374  63960.000000  0      -4890601.123      -4771228.964       1438415.628
10 0 59374  64020.000000  0      -4875805.539      -4631691.015       1874428.230
10 0 59374  64080.000000  0      -4839225.885      -4472923.819       2302510.397
10 0 59374  64140.000000  0      -4780848.334      -4295782.192       2720849.681
10 0 59374  64200.000000  0      -4700758.976      -4101198.459       3127674.612
10 0 59374  64260.000000  0      -4599144.103      -3890177.611       3521262.299
10 0 59374  64320.000000  0      -4476290.004      -3663792.144       3899945.845
10 0 59374  64380.000000  0      -4332582.236      -3423176.553       4262121.482
10 0 59374  64440.000000  0      -4168504.411      -3169521.578       4606255.361
10 0 59374  64500.000000  0      -3984636.539      -2904068.266       4930889.961
10 0 59374  64560.000000  0      -3781652.967      -2628101.884       5234650.187
10 0 59374  64620.000000  0      -3560319.857      -2342945.677       5516249.123
10 0 59374  64680.000000  0      -3321492.263      -2049954.538       5774493.398
10 0 59374  64740.000000  0      -3066110.775      -1750508.553       6008288.232
99
